{
  "norad_id": 65202,
  "name": "STARLINK-34905",
  "history": [
    {
      "epoch": "2026-03-28T15:58:58.473120Z",
      "apogee_km": 476.30133657457736,
      "perigee_km": 474.1034706278424,
      "latitude_deg": 3.2543206783370595e-05,
      "longitude_deg": -1.0901443465837641,
      "height_km": 476.32667920266323,
      "semi_major_axis_km": 6853.33940360121,
      "eccentricity": 0.00016035,
      "inclination_deg": 53.1609,
      "raan_deg": 64.7366,
      "arg_perigee_deg": 101.8959,
      "mean_anomaly_deg": 258.2222,
      "mean_motion_rev_day": 15.30204242
    },
    {
      "epoch": "2026-03-29T04:31:23.938464Z",
      "apogee_km": 476.06644564038106,
      "perigee_km": 474.2941777835731,
      "latitude_deg": -1.944975392793934e-05,
      "longitude_deg": 167.86399506668482,
      "height_km": 475.99584741394216,
      "semi_major_axis_km": 6853.317311711977,
      "eccentricity": 0.0001293,
      "inclination_deg": 53.1613,
      "raan_deg": 62.3119,
      "arg_perigee_deg": 84.6473,
      "mean_anomaly_deg": 275.4675,
      "mean_motion_rev_day": 15.30211641
    },
    {
      "epoch": "2026-03-30T04:02:11.969376Z",
      "apogee_km": 476.3274194783762,
      "perigee_km": 474.04087741040985,
      "latitude_deg": 8.244900106317998e-06,
      "longitude_deg": 169.6478288663812,
      "height_km": 476.0664689231542,
      "semi_major_axis_km": 6853.321148444393,
      "eccentricity": 0.00016682,
      "inclination_deg": 53.1625,
      "raan_deg": 57.7615,
      "arg_perigee_deg": 89.2247,
      "mean_anomaly_deg": 270.8945,
      "mean_motion_rev_day": 15.30210356
    },
    {
      "epoch": "2026-03-30T05:36:15.188832Z",
      "apogee_km": 476.024864016259,
      "perigee_km": 474.38554456099246,
      "latitude_deg": 3.879889019667103e-05,
      "longitude_deg": 145.76755986438843,
      "height_km": 475.95629756376627,
      "semi_major_axis_km": 6853.342204288625,
      "eccentricity": 0.0001196,
      "inclination_deg": 53.1609,
      "raan_deg": 57.459,
      "arg_perigee_deg": 79.654,
      "mean_anomaly_deg": 280.4596,
      "mean_motion_rev_day": 15.30203304
    },
    {
      "epoch": "2026-03-31T05:07:03.213696Z",
      "apogee_km": 476.0139611063414,
      "perigee_km": 474.4349466273716,
      "latitude_deg": 8.115105130777069e-06,
      "longitude_deg": 147.55187601919744,
      "height_km": 476.21292180586704,
      "semi_major_axis_km": 6853.361453866856,
      "eccentricity": 0.0001152,
      "inclination_deg": 53.1608,
      "raan_deg": 52.9091,
      "arg_perigee_deg": 96.5559,
      "mean_anomaly_deg": 263.5573,
      "mean_motion_rev_day": 15.30196857
    },
    {
      "epoch": "2026-04-01T14:02:10.410144Z",
      "apogee_km": 476.0979306220752,
      "perigee_km": 474.2475369939466,
      "latitude_deg": -3.260574910648525e-05,
      "longitude_deg": 6.0475407471067975,
      "height_km": 476.04936112547944,
      "semi_major_axis_km": 6853.309733808011,
      "eccentricity": 0.000135,
      "inclination_deg": 53.1621,
      "raan_deg": 46.5367,
      "arg_perigee_deg": 88.6638,
      "mean_anomaly_deg": 271.4517,
      "mean_motion_rev_day": 15.30214179
    },
    {
      "epoch": "2026-04-02T13:32:58.347744Z",
      "apogee_km": 476.60047404973466,
      "perigee_km": 473.79471886594547,
      "latitude_deg": 6.45340283920135e-05,
      "longitude_deg": 7.830616447984908,
      "height_km": 476.1389692961119,
      "semi_major_axis_km": 6853.334596457839,
      "eccentricity": 0.0002047,
      "inclination_deg": 53.1609,
      "raan_deg": 41.9851,
      "arg_perigee_deg": 91.8102,
      "mean_anomaly_deg": 268.3134,
      "mean_motion_rev_day": 15.30205852
    }
  ]
}